CZ-2F DEB               
1 67691U 26024C   26066.10408410  .01635674  11186-4  77398-3 0  9991
2 67691  49.9028  18.1283 0131992 279.1527  79.4548 16.03508425  4403
CZ-2F DEB               
1 67692U 26024D   26066.18552618  .00295498  00000+0  51287-2 0  9991
2 67692  50.3191  30.9928 0234663 270.1349  87.2725 15.24614421  4243
STARLINK-36748          
1 67693U 26025A   26065.30202369  .00191798  00000+0  12560-2 0  9990
2 67693  97.2840 176.6665 0002640 356.9972   3.1277 15.75226449  5407
STARLINK-36753          
1 67694U 26025B   26066.05659247  .00290091  00000+0  18752-2 0  9990
2 67694  97.2854 177.4775 0001964  54.3516 305.7932 15.75254688  5534
STARLINK-36750          
1 67695U 26025C   26065.57791514  .00432767  00000+0  21321-2 0  9995
2 67695  97.2829 177.0573 0001654 121.8875 238.2554 15.80998304  5450
STARLINK-36401          
1 67696U 26025D   26065.47107987  .00457950  00000+0  28995-2 0  9995
2 67696  97.2844 176.8955 0001133  61.3618 298.7761 15.75269223  5438
STARLINK-36704          
1 67697U 26025E   26065.29214160  .00207138  00000+0  13537-2 0  9995
2 67697  97.2840 176.6777 0001271  36.9478 323.1875 15.75232420  5405
STARLINK-36697          
1 67698U 26025F   26065.57145680  .00542791  00000+0  26439-2 0  9999
2 67698  97.2842 177.0661 0004852 102.3152 257.8659 15.80963251  5457
STARLINK-36716          
1 67699U 26025G   26066.16670139  .00080307  00000+0  53485-3 0  9990
2 67699  97.2839 177.6707 0001527  89.9234 354.2062 15.75163024  5610
STARLINK-36712          
1 67700U 26025H   26065.53637364  .00478076  00000+0  30154-2 0  9997
2 67700  97.2851 176.9588 0001126 359.6609   0.4656 15.75301259  5448
STARLINK-36713          
1 67701U 26025J   26065.47460554  .00211044  00000+0  13747-2 0  9995
2 67701  97.2851 176.8886 0000480  12.8637 347.2640 15.75297661  5446
STARLINK-36695          
1 67702U 26025K   26065.47672457  .00318530  00000+0  20469-2 0  9990
2 67702  97.2858 176.8853 0001369  49.9976 310.1409 15.75312473  5432
STARLINK-36630          
1 67703U 26025L   26066.16670139  .00016920  00000+0  11418-3 0  9996
2 67703  97.2841 177.7074 0001875  80.1429  93.9569 15.75169898  5458
STARLINK-36338          
1 67704U 26025M   26065.58225387  .00231081  00000+0  15032-2 0  9995
2 67704  97.2839 177.0469 0001352  86.1605 273.9815 15.75272259  5459
STARLINK-36316          
1 67705U 26025N   26065.52860238  .00240733  00000+0  15615-2 0  9991
2 67705  97.2854 176.9686 0003437 122.9225 237.2371 15.75309580  5446
STARLINK-36707          
1 67706U 26025P   26065.25473742  .00403044  00000+0  25623-2 0  9998
2 67706  97.2848 176.7289 0000772 132.8286 227.3045 15.75325851  5406
